{"type": "FeatureCollection", "features": [ {"type": "Feature", "properties": {"norad_id": 43623, "name": "BEIDOU-3 M14 (C33)", "group": "beidou", "lat": -24.217461923735303, "lon": 51.62229993127918, "alt_km": 21522.249509630474, "timestamp": "2025-12-08T17:43:05.196059+00:00", "meta": {"OBJECT_NAME": "BEIDOU-3 M14 (C33)", "OBJECT_ID": "2018-072B", "EPOCH": "2025-12-08T05:53:08.473344", "MEAN_MOTION": 1.8623075, "ECCENTRICITY": 0.00032562, "INCLINATION": 56.4569, "RA_OF_ASC_NODE": 68.9631, "ARG_OF_PERICENTER": 332.5752, "MEAN_ANOMALY": 27.4289, "EPHEMERIS_TYPE": 0, "CLASSIFICATION_TYPE": "U", "NORAD_CAT_ID": 43623, "ELEMENT_SET_NO": 999, "REV_AT_EPOCH": 4909, "BSTAR": 0, "MEAN_MOTION_DOT": -4.5e-07, "MEAN_MOTION_DDOT": 0}, "tle": {"line1": "1 43623U 18072B   25342.24523696 -.00000045  00000+0  00000+0 0  9997", "line2": "2 43623  56.4569  68.9631 0003256 332.5752  27.4289  1.86230750 49097"}}, "geometry": {"type": "Point", "coordinates": [51.62229993127918, -24.217461923735303]}}, {"type": "Feature", "properties": {"norad_id": 43647, "name": "BEIDOU-3 M16 (C35)", "group": "beidou", "lat": -34.83795208333347, "lon": 156.68772381401737, "alt_km": 21550.081832943688, "timestamp": "2025-12-08T17:43:05.196071+00:00", "meta": {"OBJECT_NAME": "BEIDOU-3 M16 (C35)", "OBJECT_ID": "2018-078A", "EPOCH": "2025-12-07T20:47:16.965312", "MEAN_MOTION": 1.86232177, "ECCENTRICITY": 0.00071256, "INCLINATION": 54.2666, "RA_OF_ASC_NODE": 306.6916, "ARG_OF_PERICENTER": 18.9999, "MEAN_ANOMALY": 341.0132, "EPHEMERIS_TYPE": 0, "CLASSIFICATION_TYPE": "U", "NORAD_CAT_ID": 43647, "ELEMENT_SET_NO": 999, "REV_AT_EPOCH": 4859, "BSTAR": 0, "MEAN_MOTION_DOT": -7.1e-07, "MEAN_MOTION_DDOT": 0}, "tle": {"line1": "1 43647U 18078A   25341.86616858 -.00000071  00000+0  00000+0 0  9998", "line2": "2 43647  54.2666 306.6916 0007125  18.9999 341.0132  1.86232177 48593"}}, "geometry": {"type": "Point", "coordinates": [156.68772381401737, -34.83795208333347]}}, {"type": "Feature", "properties": {"norad_id": 43648, "name": "BEIDOU-3 M15 (C34)", "group": "beidou", "lat": 32.789462456578626, "lon": 99.02749519885715, "alt_km": 21529.120894173197, "timestamp": "2025-12-08T17:43:05.196082+00:00", "meta": {"OBJECT_NAME": "BEIDOU-3 M15 (C34)", "OBJECT_ID": "2018-078B", "EPOCH": "2025-12-05T07:27:18.667008", "MEAN_MOTION": 1.86231965, "ECCENTRICITY": 0.00036856, "INCLINATION": 54.2646, "RA_OF_ASC_NODE": 306.7819, "ARG_OF_PERICENTER": 17.7509, "MEAN_ANOMALY": 342.2442, "EPHEMERIS_TYPE": 0, "CLASSIFICATION_TYPE": "U", "NORAD_CAT_ID": 43648, "ELEMENT_SET_NO": 999, "REV_AT_EPOCH": 4856, "BSTAR": 0, "MEAN_MOTION_DOT": -6.9e-07, "MEAN_MOTION_DDOT": 0}, "tle": {"line1": "1 43648U 18078B   25339.31063272 -.00000069  00000+0  00000+0 0  9999", "line2": "2 43648  54.2646 306.7819 0003685  17.7509 342.2442  1.86231965 48564"}}, "geometry": {"type": "Point", "coordinates": [99.02749519885715, 32.789462456578626]}}, {"type": "Feature", "properties": {"norad_id": 43683, "name": "BEIDOU-3 G1 (C59)", "group": "beidou", "lat": 0.9254515208885445, "lon": 123.54775684791693, "alt_km": 35780.35016168551, "timestamp": "2025-12-08T17:43:05.196094+00:00", "meta": {"OBJECT_NAME": "BEIDOU-3 G1 (C59)", "OBJECT_ID": "2018-085A", "EPOCH": "2025-12-08T07:25:20.267040", "MEAN_MOTION": 1.00272172, "ECCENTRICITY": 0.00018048, "INCLINATION": 2.5963, "RA_OF_ASC_NODE": 103.0717, "ARG_OF_PERICENTER": 63.3495, "MEAN_ANOMALY": 162.3008, "EPHEMERIS_TYPE": 0, "CLASSIFICATION_TYPE": "U", "NORAD_CAT_ID": 43683, "ELEMENT_SET_NO": 999, "REV_AT_EPOCH": 2614, "BSTAR": 0, "MEAN_MOTION_DOT": -2.75e-06, "MEAN_MOTION_DDOT": 0}, "tle": {"line1": "1 43683U 18085A   25342.30926235 -.00000275  00000+0  00000+0 0  9995", "line2": "2 43683   2.5963 103.0717 0001804  63.3495 162.3008  1.00272172 26148"}}, "geometry": {"type": "Point", "coordinates": [123.54775684791693, 0.9254515208885445]}}, {"type": "Feature", "properties": {"norad_id": 43706, "name": "BEIDOU-3 M17 (C36)", "group": "beidou", "lat": 25.297779523093254, "lon": -151.26416253819002, "alt_km": 21523.681433183818, "timestamp": "2025-12-08T17:43:05.196106+00:00", "meta": {"OBJECT_NAME": "BEIDOU-3 M17 (C36)", "OBJECT_ID": "2018-093A", "EPOCH": "2025-12-07T14:48:21.855168", "MEAN_MOTION": 1.86228284, "ECCENTRICITY": 0.00062805, "INCLINATION": 54.1726, "RA_OF_ASC_NODE": 188.7957, "ARG_OF_PERICENTER": 306.8929, "MEAN_ANOMALY": 53.1188, "EPHEMERIS_TYPE": 0, "CLASSIFICATION_TYPE": "U", "NORAD_CAT_ID": 43706, "ELEMENT_SET_NO": 999, "REV_AT_EPOCH": 4797, "BSTAR": 0, "MEAN_MOTION_DOT": 5.7e-07, "MEAN_MOTION_DDOT": 0}, "tle": {"line1": "1 43706U 18093A   25341.61691962  .00000057  00000+0  00000+0 0  9996", "line2": "2 43706  54.1726 188.7957 0006280 306.8929  53.1188  1.86228284 47979"}}, "geometry": {"type": "Point", "coordinates": [-151.26416253819002, 25.297779523093254]}}, {"type": "Feature", "properties": {"norad_id": 43707, "name": "BEIDOU-3 M18 (C37)", "group": "beidou", "lat": 41.756876173510015, "lon": -31.416704959425815, "alt_km": 21535.428333305423, "timestamp": "2025-12-08T17:43:05.196118+00:00", "meta": {"OBJECT_NAME": "BEIDOU-3 M18 (C37)", "OBJECT_ID": "2018-093B", "EPOCH": "2025-12-08T00:22:06.139776", "MEAN_MOTION": 1.86226539, "ECCENTRICITY": 0.00063651, "INCLINATION": 54.1733, "RA_OF_ASC_NODE": 188.774, "ARG_OF_PERICENTER": 352.0648, "MEAN_ANOMALY": 7.9918, "EPHEMERIS_TYPE": 0, "CLASSIFICATION_TYPE": "U", "NORAD_CAT_ID": 43707, "ELEMENT_SET_NO": 999, "REV_AT_EPOCH": 4797, "BSTAR": 0, "MEAN_MOTION_DOT": 5.3e-07, "MEAN_MOTION_DDOT": 0}, "tle": {"line1": "1 43707U 18093B   25342.01534884  .00000053  00000+0  00000+0 0  9997", "line2": "2 43707  54.1733 188.7740 0006365 352.0648   7.9918  1.86226539 47972"}}, "geometry": {"type": "Point", "coordinates": [-31.416704959425815, 41.756876173510015]}}, {"type": "Feature", "properties": {"norad_id": 44204, "name": "BEIDOU-3 IGSO-1 (C38)", "group": "beidou", "lat": 45.79026995137112, "lon": 78.8062380068836, "alt_km": 35898.18809874605, "timestamp": "2025-12-08T17:43:05.196129+00:00", "meta": {"OBJECT_NAME": "BEIDOU-3 IGSO-1 (C38)", "OBJECT_ID": "2019-023A", "EPOCH": "2025-11-19T14:15:02.708640", "MEAN_MOTION": 1.00252177, "ECCENTRICITY": 0.0026966, "INCLINATION": 58.4003, "RA_OF_ASC_NODE": 39.8168, "ARG_OF_PERICENTER": 221.2202, "MEAN_ANOMALY": 126.9723, "EPHEMERIS_TYPE": 0, "CLASSIFICATION_TYPE": "U", "NORAD_CAT_ID": 44204, "ELEMENT_SET_NO": 999, "REV_AT_EPOCH": 510, "BSTAR": 0, "MEAN_MOTION_DOT": -2.26e-06, "MEAN_MOTION_DDOT": 0}, "tle": {"line1": "1 44204U 19023A   25323.59378135 -.00000226  00000+0  00000+0 0  9994", "line2": "2 44204  58.4003  39.8168 0026966 221.2202 126.9723  1.00252177  5102"}}, "geometry": {"type": "Point", "coordinates": [78.8062380068836, 45.79026995137112]}}, {"type": "Feature", "properties": {"norad_id": 44231, "name": "BEIDOU-2 G8 (C01)", "group": "beidou", "lat": 1.338598917039961, "lon": 128.0759320612554, "alt_km": 35820.26406494795, "timestamp": "2025-12-08T17:43:05.196144+00:00", "meta": {"OBJECT_NAME": "BEIDOU-2 G8 (C01)", "OBJECT_ID": "2019-027A", "EPOCH": "2025-12-08T07:26:35.147328", "MEAN_MOTION": 1.00269007, "ECCENTRICITY": 0.00086087, "INCLINATION": 1.6505, "RA_OF_ASC_NODE": 74.7218, "ARG_OF_PERICENTER": 255.48, "MEAN_ANOMALY": 3.3084, "EPHEMERIS_TYPE": 0, "CLASSIFICATION_TYPE": "U", "NORAD_CAT_ID": 44231, "ELEMENT_SET_NO": 999, "REV_AT_EPOCH": 2416, "BSTAR": 0, "MEAN_MOTION_DOT": -2.45e-06, "MEAN_MOTION_DDOT": 0}, "tle": {"line1": "1 44231U 19027A   25342.31012902 -.00000245  00000+0  00000+0 0  9997", "line2": "2 44231   1.6505  74.7218 0008608 255.4800   3.3084  1.00269007 24164"}}, "geometry": {"type": "Point", "coordinates": [128.0759320612554, 1.338598917039961]}}, {"type": "Feature", "properties": {"norad_id": 44337, "name": "BEIDOU-3 IGSO-2 (C39)", "group": "beidou", "lat": -43.53436446156549, "lon": 119.14356642787132, "alt_km": 35819.79852647824, "timestamp": "2025-12-08T17:43:05.196156+00:00", "meta": {"OBJECT_NAME": "BEIDOU-3 IGSO-2 (C39)", "OBJECT_ID": "2019-035A", "EPOCH": "2025-12-08T04:07:53.847264", "MEAN_MOTION": 1.00272471, "ECCENTRICITY": 0.00374795, "INCLINATION": 55.2246, "RA_OF_ASC_NODE": 160.5411, "ARG_OF_PERICENTER": 202.4386, "MEAN_ANOMALY": 255.7158, "EPHEMERIS_TYPE": 0, "CLASSIFICATION_TYPE": "U", "NORAD_CAT_ID": 44337, "ELEMENT_SET_NO": 999, "REV_AT_EPOCH": 2375, "BSTAR": 0, "MEAN_MOTION_DOT": -7.9e-07, "MEAN_MOTION_DDOT": 0}, "tle": {"line1": "1 44337U 19035A   25342.17215101 -.00000079  00000+0  00000+0 0  9998", "line2": "2 44337  55.2246 160.5411 0037479 202.4386 255.7158  1.00272471 23754"}}, "geometry": {"type": "Point", "coordinates": [119.14356642787132, -43.53436446156549]}}, {"type": "Feature", "properties": {"norad_id": 44542, "name": "BEIDOU-3 M24 (C46)", "group": "beidou", "lat": 52.41811279070805, "lon": -102.23278790142781, "alt_km": 21505.796832435826, "timestamp": "2025-12-08T17:43:05.196168+00:00", "meta": {"OBJECT_NAME": "BEIDOU-3 M24 (C46)", "OBJECT_ID": "2019-061A", "EPOCH": "2025-12-07T13:11:18.062304", "MEAN_MOTION": 1.86229273, "ECCENTRICITY": 0.00095737, "INCLINATION": 54.4002, "RA_OF_ASC_NODE": 189.1913, "ARG_OF_PERICENTER": 24.494, "MEAN_ANOMALY": 335.622, "EPHEMERIS_TYPE": 0, "CLASSIFICATION_TYPE": "U", "NORAD_CAT_ID": 44542, "ELEMENT_SET_NO": 999, "REV_AT_EPOCH": 4222, "BSTAR": 0, "MEAN_MOTION_DOT": 5.8e-07, "MEAN_MOTION_DDOT": 0}, "tle": {"line1": "1 44542U 19061A   25341.54951461  .00000058  00000+0  00000+0 0  9997", "line2": "2 44542  54.4002 189.1913 0009573  24.4940 335.6220  1.86229273 42226"}}, "geometry": {"type": "Point", "coordinates": [-102.23278790142781, 52.41811279070805]}}]}